{
  "type": "FeatureCollection",
  "features": [
    {
      "type": "Feature",
      "properties": {
        "norad_id": 38867,
        "name": "INTELSAT 23 (IS-23)",
        "group": "intelsat",
        "lat": 0.0320370212225673,
        "lon": -169.38514274035714,
        "alt_km": 35781.08999865751,
        "timestamp": "2025-12-11T10:53:15.553371+00:00",
        "meta_object_name": "INTELSAT 23 (IS-23)",
        "meta_object_id": "2012-057A",
        "meta_epoch": "2025-12-09T20:10:10.491744",
        "meta_mean_motion": 1.00260311,
        "meta_eccentricity": 0.00020064,
        "meta_inclination": 0.0432,
        "meta_ra_of_asc_node": 94.7791,
        "meta_arg_of_pericenter": 102.2636,
        "meta_mean_anomaly": 131.2856,
        "meta_ephemeris_type": 0,
        "meta_classification_type": "U",
        "meta_norad_cat_id": 38867,
        "meta_element_set_no": 999,
        "meta_rev_at_epoch": 4805,
        "meta_bstar": 0,
        "meta_mean_motion_dot": -2.82e-06,
        "meta_mean_motion_ddot": 0,
        "tle_line1": "1 38867U 12057A   25343.84039921 -.00000282  00000+0  00000+0 0  9991",
        "tle_line2": "2 38867   0.0432  94.7791 0002006 102.2636 131.2856  1.00260311 48055"
      },
      "geometry": {
        "type": "Point",
        "coordinates": [
          -169.38514274035714,
          0.0320370212225673
        ]
      }
    },
    {
      "type": "Feature",
      "properties": {
        "norad_id": 39360,
        "name": "FM-6",
        "group": "intelsat",
        "lat": 0.008793288901579746,
        "lon": 127.53836641675952,
        "alt_km": 35778.413562927766,
        "timestamp": "2025-12-11T10:53:15.553383+00:00",
        "meta_object_name": "FM-6",
        "meta_object_id": "2013-058A",
        "meta_epoch": "2025-12-10T23:15:42.717888",
        "meta_mean_motion": 1.00269361,
        "meta_eccentricity": 0.0002856,
        "meta_inclination": 0.0087,
        "meta_ra_of_asc_node": 66.7059,
        "meta_arg_of_pericenter": 106.8032,
        "meta_mean_anomaly": 139.1966,
        "meta_ephemeris_type": 0,
        "meta_classification_type": "U",
        "meta_norad_cat_id": 39360,
        "meta_element_set_no": 999,
        "meta_rev_at_epoch": 4418,
        "meta_bstar": 0,
        "meta_mean_motion_dot": -1.1e-07,
        "meta_mean_motion_ddot": 0,
        "tle_line1": "1 39360U 13058A   25344.96924442 -.00000011  00000+0  00000+0 0  9997",
        "tle_line2": "2 39360   0.0087  66.7059 0002856 106.8032 139.1966  1.00269361 44182"
      },
      "geometry": {
        "type": "Point",
        "coordinates": [
          127.53836641675952,
          0.008793288901579746
        ]
      }
    },
    {
      "type": "Feature",
      "properties": {
        "norad_id": 40271,
        "name": "INTELSAT 30 (IS-30)",
        "group": "intelsat",
        "lat": 0.019716461218383694,
        "lon": 148.666259995842,
        "alt_km": 35784.699642112995,
        "timestamp": "2025-12-11T10:53:15.553395+00:00",
        "meta_object_name": "INTELSAT 30 (IS-30)",
        "meta_object_id": "2014-062A",
        "meta_epoch": "2025-12-10T19:56:16.820736",
        "meta_mean_motion": 1.00269622,
        "meta_eccentricity": 0.0001301,
        "meta_inclination": 0.0174,
        "meta_ra_of_asc_node": 29.1064,
        "meta_arg_of_pericenter": 50.969,
        "meta_mean_anomaly": 203.7271,
        "meta_ephemeris_type": 0,
        "meta_classification_type": "U",
        "meta_norad_cat_id": 40271,
        "meta_element_set_no": 999,
        "meta_rev_at_epoch": 489,
        "meta_bstar": 0,
        "meta_mean_motion_dot": -1.46e-06,
        "meta_mean_motion_ddot": 0,
        "tle_line1": "1 40271U 14062A   25344.83075024 -.00000146  00000+0  00000+0 0  9994",
        "tle_line2": "2 40271   0.0174  29.1064 0001301  50.9690 203.7271  1.00269622  4895"
      },
      "geometry": {
        "type": "Point",
        "coordinates": [
          148.666259995842,
          0.019716461218383694
        ]
      }
    },
    {
      "type": "Feature",
      "properties": {
        "norad_id": 40333,
        "name": "DIRECTV 14",
        "group": "intelsat",
        "lat": 0.00291231568506037,
        "lon": 144.50380233029512,
        "alt_km": 35784.764655091545,
        "timestamp": "2025-12-11T10:53:15.553407+00:00",
        "meta_object_name": "DIRECTV 14",
        "meta_object_id": "2014-078B",
        "meta_epoch": "2025-12-10T23:20:34.750752",
        "meta_mean_motion": 1.00270629,
        "meta_eccentricity": 5.24e-05,
        "meta_inclination": 0.0172,
        "meta_ra_of_asc_node": 324.7094,
        "meta_arg_of_pericenter": 220.9679,
        "meta_mean_anomaly": 145.1924,
        "meta_ephemeris_type": 0,
        "meta_classification_type": "U",
        "meta_norad_cat_id": 40333,
        "meta_element_set_no": 999,
        "meta_rev_at_epoch": 4015,
        "meta_bstar": 0,
        "meta_mean_motion_dot": -1.2e-06,
        "meta_mean_motion_ddot": 0,
        "tle_line1": "1 40333U 14078B   25344.97262443 -.00000120  00000+0  00000+0 0  9990",
        "tle_line2": "2 40333   0.0172 324.7094 0000524 220.9679 145.1924  1.00270629 40153"
      },
      "geometry": {
        "type": "Point",
        "coordinates": [
          144.50380233029512,
          0.00291231568506037
        ]
      }
    },
    {
      "type": "Feature",
      "properties": {
        "norad_id": 40663,
        "name": "DIRECTV 15",
        "group": "intelsat",
        "lat": 0.03662794784777326,
        "lon": 140.85852231868776,
        "alt_km": 35786.190732529256,
        "timestamp": "2025-12-11T10:53:15.553419+00:00",
        "meta_object_name": "DIRECTV 15",
        "meta_object_id": "2015-026A",
        "meta_epoch": "2025-12-10T23:19:34.847040",
        "meta_mean_motion": 1.00272611,
        "meta_eccentricity": 2.21e-05,
        "meta_inclination": 0.0411,
        "meta_ra_of_asc_node": 85.4129,
        "meta_arg_of_pericenter": 166.5843,
        "meta_mean_anomaly": 74.9718,
        "meta_ephemeris_type": 0,
        "meta_classification_type": "U",
        "meta_norad_cat_id": 40663,
        "meta_element_set_no": 999,
        "meta_rev_at_epoch": 3857,
        "meta_bstar": 0,
        "meta_mean_motion_dot": -9.7e-07,
        "meta_mean_motion_ddot": 0,
        "tle_line1": "1 40663U 15026A   25344.97193110 -.00000097  00000+0  00000+0 0  9997",
        "tle_line2": "2 40663   0.0411  85.4129 0000221 166.5843  74.9718  1.00272611 38573"
      },
      "geometry": {
        "type": "Point",
        "coordinates": [
          140.85852231868776,
          0.03662794784777326
        ]
      }
    },
    {
      "type": "Feature",
      "properties": {
        "norad_id": 40664,
        "name": "SKY MEXICO-1",
        "group": "intelsat",
        "lat": 0.025782446896718672,
        "lon": 164.92338842342375,
        "alt_km": 35790.69937411222,
        "timestamp": "2025-12-11T10:53:15.553469+00:00",
        "meta_object_name": "SKY MEXICO-1",
        "meta_object_id": "2015-026B",
        "meta_epoch": "2025-12-11T02:51:53.454816",
        "meta_mean_motion": 1.00270508,
        "meta_eccentricity": 0.0002696,
        "meta_inclination": 0.0319,
        "meta_ra_of_asc_node": 72.6879,
        "meta_arg_of_pericenter": 204.165,
        "meta_mean_anomaly": 127.4333,
        "meta_ephemeris_type": 0,
        "meta_classification_type": "U",
        "meta_norad_cat_id": 40664,
        "meta_element_set_no": 999,
        "meta_rev_at_epoch": 3856,
        "meta_bstar": 0,
        "meta_mean_motion_dot": -2.29e-06,
        "meta_mean_motion_ddot": 0,
        "tle_line1": "1 40664U 15026B   25345.11936869 -.00000229  00000+0  00000+0 0  9998",
        "tle_line2": "2 40664   0.0319  72.6879 0002696 204.1650 127.4333  1.00270508 38563"
      },
      "geometry": {
        "type": "Point",
        "coordinates": [
          164.92338842342375,
          0.025782446896718672
        ]
      }
    },
    {
      "type": "Feature",
      "properties": {
        "norad_id": 40874,
        "name": "INTELSAT 34 (IS-34)",
        "group": "intelsat",
        "lat": -0.01860757901307157,
        "lon": -171.77684728471502,
        "alt_km": 35784.900987419736,
        "timestamp": "2025-12-11T10:53:15.553486+00:00",
        "meta_object_name": "INTELSAT 34 (IS-34)",
        "meta_object_id": "2015-039A",
        "meta_epoch": "2025-12-11T02:58:30.321984",
        "meta_mean_motion": 1.00269833,
        "meta_eccentricity": 4.72e-05,
        "meta_inclination": 0.0116,
        "meta_ra_of_asc_node": 322.3634,
        "meta_arg_of_pericenter": 199.147,
        "meta_mean_anomaly": 267.7034,
        "meta_ephemeris_type": 0,
        "meta_classification_type": "U",
        "meta_norad_cat_id": 40874,
        "meta_element_set_no": 999,
        "meta_rev_at_epoch": 3773,
        "meta_bstar": 0,
        "meta_mean_motion_dot": -2.8e-06,
        "meta_mean_motion_ddot": 0,
        "tle_line1": "1 40874U 15039A   25345.12396206 -.00000280  00000+0  00000+0 0  9998",
        "tle_line2": "2 40874   0.0116 322.3634 0000472 199.1470 267.7034  1.00269833 37731"
      },
      "geometry": {
        "type": "Point",
        "coordinates": [
          -171.77684728471502,
          -0.01860757901307157
        ]
      }
    }
  ]
}